STARLINK-32091          
1 59684U 24086C   26160.52353138  .00000351  00000+0  22296-4 0  9990
2 59684  43.0067 253.7751 0002416 288.1873  71.8716 15.27581359118257
STARLINK-32085          
1 59685U 24086D   26160.56883204  .00013552  00000+0  50214-3 0  9994
2 59685  43.0022 261.0332 0000198 209.0622 151.0218 15.27511600118165
STARLINK-32100          
1 59686U 24086E   26160.52494602 -.00000295  00000+0 -12148-5 0  9999
2 59686  42.9998 243.1538 0001221 272.7526  87.3186 15.27573002118364
STARLINK-32089          
1 59687U 24086F   26160.55339975  .00003094  00000+0  12186-3 0  9992
2 59687  42.9704 260.9044 0001438 233.3387 126.7333 15.27585726118163
STARLINK-32103          
1 59688U 24086G   26160.55356966 -.00000672  00000+0 -14912-4 0  9993
2 59688  43.0084 250.5405 0000769 247.7623 112.3147 15.27583749118281
STARLINK-32105          
1 59689U 24086H   26160.54696816  .00002455  00000+0  98657-4 0  9991
2 59689  43.0072 260.8748 0001426 254.5984 105.4711 15.27601851118162
STARLINK-32106          
1 59690U 24086J   26159.98888399  .00000523  00000+0  28510-4 0  9993
2 59690  43.0005 256.6381 0000120 220.3774 139.7069 15.27581468118161
STARLINK-32090          
1 59691U 24086K   26160.01070963 -.00001316  00000+0 -38322-4 0  9995
2 59691  43.0031 268.0380 0001093 260.2362  99.8366 15.27564954118036
STARLINK-32088          
1 59693U 24086M   26159.99659057  .00001056  00000+0  47854-4 0  9998
2 59693  42.9937 256.6991 0000321  59.2643 300.8240 15.27583909118164
STARLINK-32107          
1 59694U 24086N   26160.58681147  .00000251  00000+0  18651-4 0  9990
2 59694  43.0150 261.1749 0001535 274.5715  85.4961 15.27581887118165
STARLINK-32104          
1 59695U 24086P   26159.99752639 -.00000340  00000+0 -28184-5 0  9993
2 59695  43.0028 260.9536 0001500 272.9076  87.1604 15.27571587118119
STARLINK-32094          
1 59696U 24086Q   26158.04058827  .00001267  00000+0  55528-4 0  9995
2 59696  43.0023 275.5933 0000670 249.5503 110.5277 15.27587711117774
STARLINK-32099          
1 59697U 24086R   26160.55083408  .00004695  00000+0  17996-3 0  9992
2 59697  43.0002 260.8995 0001403 260.0136 100.0557 15.27594159118165
STARLINK-32096          
1 59698U 24086S   26160.56508354  .00047164  00000+0  17213-2 0  9995
2 59698  43.0037 261.0014 0000665  39.0017 321.0883 15.27411464118164
STARLINK-32102          
1 59699U 24086T   26160.55726108  .00019462  00000+0  71447-3 0  9994
2 59699  43.0008 260.9485 0001460 110.2282 249.8727 15.27599092118161
STARLINK-32092          
1 59700U 24086U   26159.59444500 -.00001324  00000+0 -38569-4 0  9991
2 59700  43.0042 266.6181 0001401 274.0818  85.9873 15.27591931118016
STARLINK-32093          
1 59701U 24086V   26160.57267177  .00001008  00000+0  46132-4 0  9997
2 59701  43.0052 261.0622 0001162 271.2767  88.7952 15.27585819118166
STARLINK-32087          
1 59702U 24086W   26160.56112033  .00000407  00000+0  24335-4 0  9990
2 59702  43.0053 260.9744 0001891 282.5521  77.5119 15.27576219118168
STARLINK-32086          
1 59703U 24086X   26160.54313241 -.00001294  00000+0 -37517-4 0  9996
2 59703  43.0096 260.8471 0001493 269.6348  90.4333 15.27577115118161
STARLINK-32098          
1 59704U 24086Y   26160.58296254  .00001639  00000+0  69082-4 0  9998
2 59704  43.0093 261.1371 0001011 273.4425  86.6311 15.27573163118169
STARLINK-11107 [DTC]    
1 59708U 24088A   26160.48240590  .00000953  00000+0  12725-4 0  9995
2 59708  53.1586 233.4600 0000991  69.7687 290.3437 15.69709352120670
STARLINK-11088 [DTC]    
1 59709U 24088B   26160.47269379 -.00018753  00000+0 -15036-3 0  9997
2 59709  53.1578 234.1211 0000931  76.6940 283.4181 15.69696247120689
STARLINK-11092 [DTC]    
1 59710U 24088C   26160.46779393 -.00000825  00000+0 -19474-5 0  9993
2 59710  53.1588 234.0875 0001326  34.3619 325.7484 15.69706641120686
STARLINK-11082 [DTC]    
1 59711U 24088D   26160.46288395  .00000563  00000+0  94938-5 0  9996
2 59711  53.1585 234.0533 0000436  94.9964 265.1104 15.69710178120687
STARLINK-11108 [DTC]    
1 59712U 24088E   26160.45798049  .00002548  00000+0  25884-4 0  9996
2 59712  53.1581 234.0216 0001214  87.5530 272.5627 15.69709929120688
STARLINK-11100 [DTC]    
1 59713U 24088F   26160.45307920  .00001631  00000+0  18316-4 0  9995
2 59713  53.1579 233.9890 0000583  97.8683 262.2401 15.69697988120680
STARLINK-11094 [DTC]    
1 59714U 24088G   26160.44816705 -.00001853  00000+0 -10444-4 0  9993
2 59714  53.1571 233.9639 0000930 118.7672 241.3440 15.69706980120685
STARLINK-11101 [DTC]    
1 59715U 24088H   26160.50203031  .00000039  00000+0  51759-5 0  9991
2 59715  53.1593 233.5742 0000738  66.9860 293.1235 15.69702614120698
STARLINK-11099 [DTC]    
1 59716U 24088J   26160.44326359  .00000983  00000+0  12970-4 0  9993
2 59716  53.1590 233.9225 0001053  94.7183 265.3955 15.69706550120686
STARLINK-11084 [DTC]    
1 59717U 24088K   26160.49712433  .00000092  00000+0  56137-5 0  9996
2 59717  53.1585 233.5391 0000959  50.4003 309.7099 15.69704348120691
