OBJECT_NAME,OBJECT_ID,EPOCH,MEAN_MOTION,ECCENTRICITY,INCLINATION,RA_OF_ASC_NODE,ARG_OF_PERICENTER,MEAN_ANOMALY,EPHEMERIS_TYPE,CLASSIFICATION_TYPE,NORAD_CAT_ID,ELEMENT_SET_NO,REV_AT_EPOCH,BSTAR,MEAN_MOTION_DOT,MEAN_MOTION_DDOT
STARLINK-32091,2024-086C,2026-06-09T12:33:53.111232,15.27581359,.00024169,43.0067,253.7751,288.1873,71.8716,0,U,59684,999,11825,.22296424E-4,.351E-5,0
STARLINK-32085,2024-086D,2026-06-09T13:39:07.088256,15.27511600,.00001989,43.0022,261.0332,209.0622,151.0218,0,U,59685,999,11816,.5021363E-3,.13552E-3,0
STARLINK-32100,2024-086E,2026-06-09T12:35:55.336128,15.27573002,.0001221,42.9998,243.1538,272.7526,87.3186,0,U,59686,999,11836,-.1214757E-5,-.295E-5,0
STARLINK-32089,2024-086F,2026-06-09T13:16:53.738400,15.27585726,.0001438,42.9704,260.9044,233.3387,126.7333,0,U,59687,999,11816,.12186276E-3,.3094E-4,0
STARLINK-32103,2024-086G,2026-06-09T13:17:08.418624,15.27583749,.00007692,43.0084,250.5405,247.7623,112.3147,0,U,59688,999,11828,-.14912311E-4,-.672E-5,0
STARLINK-32105,2024-086H,2026-06-09T13:07:38.049024,15.27601851,.00014262,43.0072,260.8748,254.5984,105.4711,0,U,59689,999,11816,.98656958E-4,.2455E-4,0
STARLINK-32106,2024-086J,2026-06-08T23:43:59.576736,15.27581468,.00001203,43.0005,256.6381,220.3774,139.7069,0,U,59690,999,11816,.28509581E-4,.523E-5,0
STARLINK-32090,2024-086K,2026-06-09T00:15:25.312032,15.27564954,.00010932,43.0031,268.0380,260.2362,99.8366,0,U,59691,999,11803,-.38322488E-4,-.1316E-4,0
STARLINK-32088,2024-086M,2026-06-08T23:55:05.425248,15.27583909,.00003214,42.9937,256.6991,59.2643,300.8240,0,U,59693,999,11816,.47854494E-4,.1056E-4,0
STARLINK-32107,2024-086N,2026-06-09T14:05:00.511008,15.27581887,.00015356,43.0150,261.1749,274.5715,85.4961,0,U,59694,999,11816,.18650559E-4,.251E-5,0
STARLINK-32104,2024-086P,2026-06-08T23:56:26.280096,15.27571587,.00015005,43.0028,260.9536,272.9076,87.1604,0,U,59695,999,11811,-.2818407E-5,-.34E-5,0
STARLINK-32094,2024-086Q,2026-06-07T00:58:26.826528,15.27587711,.00006701,43.0023,275.5933,249.5503,110.5277,0,U,59696,999,11777,.55527862E-4,.1267E-4,0
STARLINK-32099,2024-086R,2026-06-09T13:13:12.064512,15.27594159,.00014032,43.0002,260.8995,260.0136,100.0557,0,U,59697,999,11816,.1799635E-3,.4695E-4,0
STARLINK-32096,2024-086S,2026-06-09T13:33:43.217856,15.27411464,.00006658,43.0037,261.0014,39.0017,321.0883,0,U,59698,999,11816,.17213038E-2,.47164E-3,0
STARLINK-32102,2024-086T,2026-06-09T13:22:27.357312,15.27599092,.00014607,43.0008,260.9485,110.2282,249.8727,0,U,59699,999,11816,.71446673E-3,.19462E-3,0
STARLINK-32092,2024-086U,2026-06-08T14:16:00.048000,15.27591931,.00014018,43.0042,266.6181,274.0818,85.9873,0,U,59700,999,11801,-.38568509E-4,-.1324E-4,0
STARLINK-32093,2024-086V,2026-06-09T13:44:38.840928,15.27585819,.00011627,43.0052,261.0622,271.2767,88.7952,0,U,59701,999,11816,.46132216E-4,.1008E-4,0
STARLINK-32087,2024-086W,2026-06-09T13:28:00.796512,15.27576219,.00018916,43.0053,260.9744,282.5521,77.5119,0,U,59702,999,11816,.24334621E-4,.407E-5,0
STARLINK-32086,2024-086X,2026-06-09T13:02:06.640224,15.27577115,.00014935,43.0096,260.8471,269.6348,90.4333,0,U,59703,999,11816,-.37516587E-4,-.1294E-4,0
STARLINK-32098,2024-086Y,2026-06-09T13:59:27.963456,15.27573163,.00010113,43.0093,261.1371,273.4425,86.6311,0,U,59704,999,11816,.69081986E-4,.1639E-4,0
STARLINK-11107 [DTC],2024-088A,2026-06-09T11:34:39.869760,15.69709352,.00009916,53.1586,233.4600,69.7687,290.3437,0,U,59708,999,12067,.12725459E-4,.953E-5,0
STARLINK-11088 [DTC],2024-088B,2026-06-09T11:20:40.743456,15.69696247,.00009316,53.1578,234.1211,76.6940,283.4181,0,U,59709,999,12068,-.15036301E-3,-.18753E-3,0
STARLINK-11092 [DTC],2024-088C,2026-06-09T11:13:37.395552,15.69706641,.0001326,53.1588,234.0875,34.3619,325.7484,0,U,59710,999,12068,-.1947382E-5,-.825E-5,0
STARLINK-11082 [DTC],2024-088D,2026-06-09T11:06:33.173280,15.69710178,.00004363,53.1585,234.0533,94.9964,265.1104,0,U,59711,999,12068,.9493764E-5,.563E-5,0
STARLINK-11108 [DTC],2024-088E,2026-06-09T10:59:29.514336,15.69709929,.00012149,53.1581,234.0216,87.5530,272.5627,0,U,59712,999,12068,.25884441E-4,.2548E-4,0
STARLINK-11100 [DTC],2024-088F,2026-06-09T10:52:26.042880,15.69697988,.00005838,53.1579,233.9890,97.8683,262.2401,0,U,59713,999,12068,.18316069E-4,.1631E-4,0
STARLINK-11094 [DTC],2024-088G,2026-06-09T10:45:21.633120,15.69706980,.00009305,53.1571,233.9639,118.7672,241.3440,0,U,59714,999,12068,-.10444431E-4,-.1853E-4,0
STARLINK-11101 [DTC],2024-088H,2026-06-09T12:02:55.418784,15.69702614,.00007389,53.1593,233.5742,66.9860,293.1235,0,U,59715,999,12069,.5175939E-5,.39E-6,0
STARLINK-11099 [DTC],2024-088J,2026-06-09T10:38:17.974176,15.69706550,.00010532,53.1590,233.9225,94.7183,265.3955,0,U,59716,999,12068,.12969503E-4,.983E-5,0
STARLINK-11084 [DTC],2024-088K,2026-06-09T11:55:51.542112,15.69704348,.00009592,53.1585,233.5391,50.4003,309.7099,0,U,59717,999,12069,.5613692E-5,.92E-6,0
